NORAD_CAT_ID,OBJECT_NAME,OBJECT_TYPE,EPOCH,MEAN_MOTION,ECCENTRICITY,INCLINATION,RA_OF_ASC_NODE,ARG_OF_PERICENTER,MEAN_ANOMALY,BSTAR,MEAN_MOTION_DOT,MEAN_MOTION_DDOT,TLE_LINE0,TLE_LINE1,TLE_LINE2,SEMIMAJOR_AXIS,PERIOD,APOGEE,PERIGEE,DECAYED
56775.0,STARLINK-6292,PAYLOAD,2024-04-28 14:40:34,14.98319747,0.0003005,70.0012,219.3156,264.5408,95.5408,-0.00020565,-2.545e-05,0.0,0 STARLINK-6292,1 56775U 23078J   24119.61150821 -.00002545  00000-0 -20565-3 0  9990,2 56775  70.0012 219.3156 0003005 264.5408  95.5408 14.98319747 51792,6950.225,96.108,574.178,570.001,0.0
56775.0,STARLINK-6292,PAYLOAD,2024-04-28 16:16:42,14.98320534,0.0002983,70.0014,219.1475,264.6715,95.4104,-0.00019069,-2.367e-05,0.0,0 STARLINK-6292,1 56775U 23078J   24119.67826775 -.00002367  00000-0 -19069-3 0  9993,2 56775  70.0014 219.1475 0002983 264.6715  95.4104 14.98320534 51802,6950.222,96.108,574.16,570.014,0.0
56775.0,STARLINK-6292,PAYLOAD,2024-04-29 00:17:22,14.98332162,0.0002999,70.0014,218.3071,268.7736,91.308,-0.00019654,-2.437e-05,0.0,0 STARLINK-6292,1 56775U 23078J   24120.01206189 -.00002437  00000-0 -19654-3 0  9992,2 56775  70.0014 218.3071 0002999 268.7736  91.3080 14.98332162 52113,6950.186,96.107,574.136,569.967,0.0
56775.0,STARLINK-6292,PAYLOAD,2024-04-29 13:06:25,14.98335196,0.0003134,70.0012,216.9609,270.7643,89.3157,6.2223e-05,6.5e-06,0.0,0 STARLINK-6292,1 56775U 23078J   24120.54613391  .00000650  00000-0  62223-4 0  9991,2 56775  70.0012 216.9609 0003134 270.7643  89.3157 14.98335196 52194,6950.177,96.107,574.22,569.864,0.0
56775.0,STARLINK-6292,PAYLOAD,2024-04-29 14:42:33,14.98335638,0.0003129,70.0012,216.7926,270.8417,89.2384,6.6543e-05,7.01e-06,0.0,0 STARLINK-6292,1 56775U 23078J   24120.61289336  .00000701  00000-0  66543-4 0  9993,2 56775  70.0012 216.7926 0003129 270.8417  89.2384 14.98335638 51942,6950.175,96.107,574.215,569.866,0.0
56775.0,STARLINK-6292,PAYLOAD,2024-04-29 16:18:41,14.98336646,0.0003122,70.0013,216.6243,270.7797,89.3004,7.8236e-05,8.41e-06,0.0,0 STARLINK-6292,1 56775U 23078J   24120.67965224  .00000841  00000-0  78236-4 0  9993,2 56775  70.0013 216.6243 0003122 270.7797  89.3004 14.98336646 51958,6950.172,96.107,574.207,569.867,0.0
56775.0,STARLINK-6292,PAYLOAD,2024-04-30 09:56:10,14.98324808,0.0003073,70.0013,214.773,269.993,90.0877,0.00024573,2.84e-05,0.0,0 STARLINK-6292,1 56775U 23078J   24121.41401454  .00002840  00000-0  24573-3 0  9991,2 56775  70.0013 214.7730 0003073 269.9930  90.0877 14.98324808 52328,6950.209,96.107,574.21,569.938,0.0
56775.0,STARLINK-6292,PAYLOAD,2024-04-30 14:44:34,14.98329857,0.0003151,70.0013,214.2684,270.6277,89.4521,0.00019642,2.251e-05,0.0,0 STARLINK-6292,1 56775U 23078J   24121.61429286  .00002251  00000-0  19642-3 0  9993,2 56775  70.0013 214.2684 0003151 270.6277  89.4521 14.98329857 52092,6950.193,96.107,574.248,569.868,0.0
56775.0,STARLINK-6292,PAYLOAD,2024-04-30 16:20:42,14.98330491,0.0003148,70.0013,214.1001,270.625,89.4549,0.00019848,2.276e-05,0.0,0 STARLINK-6292,1 56775U 23078J   24121.68105235  .00002276  00000-0  19848-3 0  9990,2 56775  70.0013 214.1001 0003148 270.6250  89.4549 14.98330491 52109,6950.191,96.107,574.244,569.868,0.0
56775.0,STARLINK-6292,PAYLOAD,2024-05-02 05:11:48,14.98331954,0.0002902,70.0021,210.2303,270.2287,89.854,-6.9629e-05,-9.24e-06,0.0,0 STARLINK-6292,1 56775U 23078J   24123.21653524 -.00000924  00000-0 -69629-4 0  9993,2 56775  70.0021 210.2303 0002902 270.2287  89.8540 14.98331954 52596,6950.187,96.107,574.069,570.035,0.0
56775.0,STARLINK-6292,PAYLOAD,2024-05-02 13:12:28,14.98332698,0.0002959,70.0019,209.3885,270.9592,89.1228,-5.8035e-05,-7.85e-06,0.0,0 STARLINK-6292,1 56775U 23078J   24123.55033392 -.00000785  00000-0 -58035-4 0  9999,2 56775  70.0019 209.3885 0002959 270.9592  89.1228 14.98332698 52384,6950.185,96.107,574.106,569.993,0.0
56775.0,STARLINK-6292,PAYLOAD,2024-05-03 05:13:47,14.98339727,0.0004024,70.0012,207.7074,283.1954,76.8756,0.00021561,2.481e-05,0.0,0 STARLINK-6292,1 56775U 23078J   24124.21791329  .00002481  00000-0  21561-3 0  9990,2 56775  70.0012 207.7074 0004024 283.1954  76.8756 14.98339727 52741,6950.163,96.106,574.825,569.231,0.0
56775.0,STARLINK-6292,PAYLOAD,2024-05-03 13:14:26,14.98357909,0.0003327,70.0006,206.8622,271.0122,89.0656,0.0002705,3.138e-05,0.0,0 STARLINK-6292,1 56775U 23078J   24124.55169829  .00003138  00000-0  27050-3 0  9990,2 56775  70.0006 206.8622 0003327 271.0122  89.0656 14.98357909 52793,6950.107,96.105,574.284,569.659,0.0
56775.0,STARLINK-6292,PAYLOAD,2024-05-03 14:50:34,14.98358746,0.0003137,70.0009,206.6937,270.1948,89.8851,0.00026684,3.095e-05,0.0,0 STARLINK-6292,1 56775U 23078J   24124.61845677  .00003095  00000-0  26684-3 0  9993,2 56775  70.0009 206.6937 0003137 270.1948  89.8851 14.98358746 52546,6950.104,96.105,574.149,569.789,0.0
56775.0,STARLINK-6292,PAYLOAD,2024-05-03 22:51:16,14.98335925,0.0002625,70.002,205.8542,272.2179,87.8679,7.9299e-05,8.53e-06,0.0,0 STARLINK-6292,1 56775U 23078J   24124.95227355  .00000853  00000-0  79299-4 0  9997,2 56775  70.0020 205.8542 0002625 272.2179  87.8679 14.98335925 52856,6950.175,96.107,573.864,570.215,0.0
56775.0,STARLINK-6292,PAYLOAD,2024-05-04 11:40:23,14.98303232,0.0002863,70.0007,204.5059,268.4315,91.6516,-0.00033576,-4.094e-05,0.0,0 STARLINK-6292,1 56775U 23078J   24125.48638861 -.00004094  00000-0 -33576-3 0  9994,2 56775  70.0007 204.5059 0002863 268.4315  91.6516 14.98303232 52931,6950.276,96.109,574.131,570.151,0.0
56775.0,STARLINK-6292,PAYLOAD,2024-05-05 05:17:52,14.98324239,0.0002931,70.0006,202.6552,268.8062,91.2761,-0.00039043,-4.748e-05,0.0,0 STARLINK-6292,1 56775U 23078J   24126.22074490 -.00004748  00000-0 -39043-3 0  9990,2 56775  70.0006 202.6552 0002931 268.8062  91.2761 14.98324239 53047,6950.211,96.107,574.113,570.039,0.0
56775.0,STARLINK-6292,PAYLOAD,2024-05-05 13:18:32,14.98325985,0.0002906,70.0007,201.8136,268.7294,91.3533,-0.00032299,-3.944e-05,0.0,0 STARLINK-6292,1 56775U 23078J   24126.55454371 -.00003944  00000-0 -32299-3 0  9999,2 56775  70.0007 201.8136 0002906 268.7294  91.3533 14.98325985 52838,6950.205,96.107,574.09,570.051,0.0
56775.0,STARLINK-6292,PAYLOAD,2024-05-05 14:54:40,14.98326281,0.0002888,70.0007,201.6453,268.6215,91.4613,-0.0003075,-3.76e-05,0.0,0 STARLINK-6292,1 56775U 23078J   24126.62130344 -.00003760  00000-0 -30750-3 0  9994,2 56775  70.0007 201.6453 0002888 268.6215  91.4613 14.98326281 52840,6950.204,96.107,574.077,570.062,0.0
56775.0,STARLINK-6292,PAYLOAD,2024-05-06 03:43:44,14.98306992,0.0002836,70.0005,200.2989,267.9523,92.1311,0.00034951,4.077e-05,0.0,0 STARLINK-6292,1 56775U 23078J   24127.15538060  .00004077  00000-0  34951-3 0  9997,2 56775  70.0005 200.2989 0002836 267.9523  92.1311 14.98306992 53182,6950.264,96.108,574.1,570.158,0.0
56775.0,STARLINK-6292,PAYLOAD,2024-05-06 11:44:24,14.98319007,0.0002902,70.0005,199.4578,268.8053,91.2773,0.00037242,4.352e-05,0.0,0 STARLINK-6292,1 56775U 23078J   24127.48917673  .00004352  00000-0  37242-3 0  9996,2 56775  70.0005 199.4578 0002902 268.8053  91.2773 14.98319007 53236,6950.227,96.108,574.109,570.075,0.0
56775.0,STARLINK-6292,PAYLOAD,2024-05-06 14:56:40,14.98323703,0.0002789,70.0006,199.1206,267.4305,92.6535,0.00041447,4.855e-05,0.0,0 STARLINK-6292,1 56775U 23078J   24127.62269338  .00004855  00000-0  41447-3 0  9990,2 56775  70.0006 199.1206 0002789 267.4305  92.6535 14.98323703 52991,6950.212,96.107,574.016,570.139,0.0
56775.0,STARLINK-6292,PAYLOAD,2024-05-07 03:45:45,14.98332416,0.0002741,70.0007,197.7741,267.3964,92.6882,0.00025433,2.943e-05,0.0,0 STARLINK-6292,1 56775U 23078J   24128.15677397  .00002943  00000-0  25433-3 0  9990,2 56775  70.0007 197.7741 0002741 267.3964  92.6882 14.98332416 53333,6950.185,96.107,573.955,570.145,0.0
56775.0,STARLINK-6292,PAYLOAD,2024-05-07 13:22:33,14.98335517,0.0002753,70.0008,196.7643,267.2142,92.8702,0.00023747,2.742e-05,0.0,0 STARLINK-6292,1 56775U 23078J   24128.55733128  .00002742  00000-0  23747-3 0  9992,2 56775  70.0008 196.7643 0002753 267.2142  92.8702 14.98335517 53130,6950.176,96.107,573.954,570.127,0.0
56775.0,STARLINK-6292,PAYLOAD,2024-05-07 14:58:41,14.98336662,0.0002752,70.0008,196.596,267.2328,92.8516,0.00024423,2.823e-05,0.0,0 STARLINK-6292,1 56775U 23078J   24128.62409005  .00002823  00000-0  24423-3 0  9996,2 56775  70.0008 196.5960 0002752 267.2328  92.8516 14.98336662 53141,6950.172,96.107,573.95,570.125,0.0
56775.0,STARLINK-6292,PAYLOAD,2024-05-08 03:47:46,14.9833853,0.0002505,70.0024,195.2512,268.2654,91.8218,-2.202e-05,-3.56e-06,0.0,0 STARLINK-6292,1 56775U 23078J   24129.15817454 -.00000356  00000-0 -22020-4 0  9999,2 56775  70.0024 195.2512 0002505 268.2654  91.8218 14.98338530 53488,6950.167,96.106,573.773,570.29,0.0
56775.0,STARLINK-6292,PAYLOAD,2024-05-08 13:24:34,14.98338119,0.000285,70.0008,194.2398,271.3376,88.7457,-8.029e-05,-1.051e-05,0.0,0 STARLINK-6292,1 56775U 23078J   24129.55873410 -.00001051  00000-0 -80290-4 0  9993,2 56775  70.0008 194.2398 0002850 271.3376  88.7457 14.98338119 53281,6950.168,96.106,574.014,570.052,0.0
56775.0,STARLINK-6292,PAYLOAD,2024-05-08 21:25:14,14.98340374,0.0002851,70.0008,193.398,270.7224,89.3608,-7.5883e-05,-9.99e-06,0.0,0 STARLINK-6292,1 56775U 23078J   24129.89253013 -.00000999  00000-0 -75883-4 0  9993,2 56775  70.0008 193.3980 0002851 270.7224  89.3608 14.98340374 53331,6950.161,96.106,574.007,570.044,0.0
56775.0,STARLINK-6292,PAYLOAD,2024-05-09 03:49:46,14.98340113,0.0002951,70.0007,192.7247,273.0213,87.0608,-8.2811e-05,-1.081e-05,0.0,0 STARLINK-6292,1 56775U 23078J   24130.15956896 -.00001081  00000-0 -82811-4 0  9995,2 56775  70.0007 192.7247 0002951 273.0213  87.0608 14.98340113 53633,6950.162,96.106,574.078,569.976,0.0
56775.0,STARLINK-6292,PAYLOAD,2024-05-09 13:26:34,14.98341595,0.0002865,70.001,191.7153,272.4627,87.6204,-4.5006e-05,-6.3e-06,0.0,0 STARLINK-6292,1 56775U 23078J   24130.56012417 -.00000630  00000-0 -45006-4 0  9996,2 56775  70.0010 191.7153 0002865 272.4627  87.6204 14.98341595 53439,6950.157,96.106,574.013,570.031,0.0
